[{"OBJECT_NAME":"STARLINK-5082","OBJECT_ID":"2022-177AB","EPOCH":"2026-03-09T22:00:01.999584","MEAN_MOTION":15.19625958,"ECCENTRICITY":0.00018811,"INCLINATION":43.0011,"RA_OF_ASC_NODE":130.8926,"ARG_OF_PERICENTER":279.8198,"MEAN_ANOMALY":76.1776,"EPHEMERIS_TYPE":0,"CLASSIFICATION_TYPE":"U","NORAD_CAT_ID":54845,"ELEMENT_SET_NO":999,"REV_AT_EPOCH":573,"BSTAR":0.051218769,"MEAN_MOTION_DOT":0.01214193,"MEAN_MOTION_DDOT":0},{"OBJECT_NAME":"HERMES-1","OBJECT_ID":"2025-052AJ","EPOCH":"2026-03-09T16:38:32.274240","MEAN_MOTION":15.20586525,"ECCENTRICITY":0.00077337,"INCLINATION":97.402,"RA_OF_ASC_NODE":322.1122,"ARG_OF_PERICENTER":159.5432,"MEAN_ANOMALY":200.6114,"EPHEMERIS_TYPE":0,"CLASSIFICATION_TYPE":"U","NORAD_CAT_ID":63242,"ELEMENT_SET_NO":999,"REV_AT_EPOCH":5467,"BSTAR":0.00030412642,"MEAN_MOTION_DOT":6.601e-5,"MEAN_MOTION_DDOT":0}]
